COMMENT,ORIGINATOR,NORAD_CAT_ID,OBJECT_NAME,OBJECT_TYPE,CLASSIFICATION_TYPE,INTLDES,EPOCH,EPOCH_MICROSECONDS,MEAN_MOTION,ECCENTRICITY,INCLINATION,RA_OF_ASC_NODE,ARG_OF_PERICENTER,MEAN_ANOMALY,EPHEMERIS_TYPE,ELEMENT_SET_NO,REV_AT_EPOCH,BSTAR,MEAN_MOTION_DOT,MEAN_MOTION_DDOT,FILE,TLE_LINE0,TLE_LINE1,TLE_LINE2,OBJECT_ID,OBJECT_NUMBER,SEMIMAJOR_AXIS,PERIOD,APOGEE,PERIGEE,DECAYED
"GENERATED VIA SPACETRACK.ORG API","18 SPCS","55102","SPACEBEE-157","PAYLOAD","U","23001CX","2023-04-14 04:57:59","740416","15.18188898","0.0015075","97.4826","164.9934","222.2039","137.8036","0","999","1539","0.001151","0.00023586","0","3887123","0 SPACEBEE-157","1 55102U 23001CX  23104.20694144  .00023586  00000-0  11510-2 0  9993","2 55102  97.4826 164.9934 0015075 222.2039 137.8036 15.18188898 15398","2023-001CX","55102","6889.451","94.850","521.702","500.930","0"
"GENERATED VIA SPACETRACK.ORG API","18 SPCS","55102","SPACEBEE-157","PAYLOAD","U","23001CX","2023-04-14 04:57:59","740416","15.18188898","0.0015075","97.4826","164.9934","222.2039","137.8036","0","999","1539","0.001151","0.00023586","0","3887333","0 SPACEBEE-157","1 55102U 23001CX  23104.20694144  .00023586  00000-0  11510-2 0  9993","2 55102  97.4826 164.9934 0015075 222.2039 137.8036 15.18188898 15398","2023-001CX","55102","6889.451","94.850","521.702","500.930","0"
"GENERATED VIA SPACETRACK.ORG API","18 SPCS","55102","SPACEBEE-157","PAYLOAD","U","23001CX","2023-04-15 03:06:43","266816","15.18237684","0.0015089","97.4824","165.9061","219.0689","140.9456","0","999","1553","0.0013364","0.00027449","0","3887974","0 SPACEBEE-157","1 55102U 23001CX  23105.12966744  .00027449  00000-0  13364-2 0  9994","2 55102  97.4824 165.9061 0015089 219.0689 140.9456 15.18237684 15533","2023-001CX","55102","6889.304","94.847","521.564","500.773","0"
"GENERATED VIA SPACETRACK.ORG API","18 SPCS","55102","SPACEBEE-157","PAYLOAD","U","23001CX","2023-04-15 03:06:43","266816","15.18237684","0.0015089","97.4824","165.9061","219.0689","140.9456","0","999","1553","0.0013364","0.00027449","0","3888084","0 SPACEBEE-157","1 55102U 23001CX  23105.12966744  .00027449  00000-0  13364-2 0  9994","2 55102  97.4824 165.9061 0015089 219.0689 140.9456 15.18237684 15533","2023-001CX","55102","6889.304","94.847","521.564","500.773","0"
"GENERATED VIA SPACETRACK.ORG API","18 SPCS","55102","SPACEBEE-157","PAYLOAD","U","23001CX","2023-04-16 09:09:54","999648","15.18311122","0.0015153","97.4824","167.1446","214.6836","145.3411","0","999","1572","0.0013281","0.00027336","0","3888530","0 SPACEBEE-157","1 55102U 23001CX  23106.38188657  .00027336  00000-0  13281-2 0  9995","2 55102  97.4824 167.1446 0015153 214.6836 145.3411 15.18311122 15722","2023-001CX","55102","6889.082","94.842","521.386","500.508","0"
"GENERATED VIA SPACETRACK.ORG API","18 SPCS","55102","SPACEBEE-157","PAYLOAD","U","23001CX","2023-04-16 09:09:54","999648","15.18311122","0.0015153","97.4824","167.1446","214.6836","145.3411","0","999","1572","0.0013281","0.00027336","0","3888626","0 SPACEBEE-157","1 55102U 23001CX  23106.38188657  .00027336  00000-0  13281-2 0  9995","2 55102  97.4824 167.1446 0015153 214.6836 145.3411 15.18311122 15722","2023-001CX","55102","6889.082","94.842","521.386","500.508","0"
"GENERATED VIA SPACETRACK.ORG API","18 SPCS","55102","SPACEBEE-157","PAYLOAD","U","23001CX","2023-04-16 17:04:25","639968","15.18331894","0.0015164","97.4821","167.4706","213.262","146.7663","0","999","1577","0.0013761","0.00028348","0","3888799","0 SPACEBEE-157","1 55102U 23001CX  23106.71140787  .00028348  00000-0  13761-2 0  9991","2 55102  97.4821 167.4706 0015164 213.2620 146.7663 15.18331894 15776","2023-001CX","55102","6889.019","94.841","521.330","500.437","0"
"GENERATED VIA SPACETRACK.ORG API","18 SPCS","55102","SPACEBEE-157","PAYLOAD","U","23001CX","2023-04-17 02:33:49","929696","15.18354751","0.0015137","97.4819","167.8619","212.0095","148.0221","0","999","1583","0.0014172","0.00029219","0","3889215","0 SPACEBEE-157","1 55102U 23001CX  23107.10682789  .00029219  00000-0  14172-2 0  9993","2 55102  97.4819 167.8619 0015137 212.0095 148.0221 15.18354751 15832","2023-001CX","55102","6888.950","94.839","521.242","500.387","0"
"GENERATED VIA SPACETRACK.ORG API","18 SPCS","55102","SPACEBEE-157","PAYLOAD","U","23001CX","2023-04-17 21:32:36","910752","15.18400379","0.0015188","97.482","168.6442","208.9591","151.0801","0","999","1595","0.0014232","0.00029382","0","3889391","0 SPACEBEE-157","1 55102U 23001CX  23107.89764943  .00029382  00000-0  14232-2 0  9990","2 55102  97.4820 168.6442 0015188 208.9591 151.0801 15.18400379 15957","2023-001CX","55102","6888.812","94.837","521.139","500.214","0"
"GENERATED VIA SPACETRACK.ORG API","18 SPCS","55102","SPACEBEE-157","PAYLOAD","U","23001CX","2023-04-18 05:27:05","915520","15.18417768","0.0015195","97.4818","168.9702","207.8305","152.2117","0","999","1600","0.0012896","0.00026621","0","3889684","0 SPACEBEE-157","1 55102U 23001CX  23108.22715180  .00026621  00000-0  12896-2 0  9994","2 55102  97.4818 168.9702 0015195 207.8305 152.2117 15.18417768 16005","2023-001CX","55102","6888.759","94.836","521.091","500.157","0"
"GENERATED VIA SPACETRACK.ORG API","18 SPCS","55102","SPACEBEE-157","PAYLOAD","U","23001CX","2023-04-18 21:16:02","946144","15.18455342","0.0015267","97.4814","169.6221","205.5584","154.4896","0","999","1610","0.0014733","0.00030473","0","3889895","0 SPACEBEE-157","1 55102U 23001CX  23108.88614521  .00030473  00000-0  14733-2 0  9995","2 55102  97.4814 169.6221 0015267 205.5584 154.4896 15.18455342 16108","2023-001CX","55102","6888.645","94.833","521.027","499.993","0"
"GENERATED VIA SPACETRACK.ORG API","18 SPCS","55102","SPACEBEE-157","PAYLOAD","U","23001CX","2023-04-19 09:55:11","624736","15.18483626","0.0015354","97.481","170.1436","203.8806","156.1718","0","999","1618","0.0014469","0.00029949","0","3890383","0 SPACEBEE-157","1 55102U 23001CX  23109.41332899  .00029949  00000-0  14469-2 0  9992","2 55102  97.4810 170.1436 0015354 203.8806 156.1718 15.18483626 16180","2023-001CX","55102","6888.560","94.831","521.001","499.848","0"
"GENERATED VIA SPACETRACK.ORG API","18 SPCS","55102","SPACEBEE-157","PAYLOAD","U","23001CX","2023-04-19 17:49:39","113184","15.18501774","0.0015339","97.4812","170.4694","202.8431","157.2122","0","999","1623","0.0014309","0.00029631","0","3890520","0 SPACEBEE-157","1 55102U 23001CX  23109.74281381  .00029631  00000-0  14309-2 0  9998","2 55102  97.4812 170.4694 0015339 202.8431 157.2122 15.18501774 16239","2023-001CX","55102","6888.505","94.830","520.936","499.804","0"
"GENERATED VIA SPACETRACK.ORG API","18 SPCS","55102","SPACEBEE-157","PAYLOAD","U","23001CX","2023-04-20 01:44:06","229248","15.18515959","0.0015333","97.4811","170.7955","201.8649","158.1933","0","999","1628","0.0011523","0.0002384","0","3890675","0 SPACEBEE-157","1 55102U 23001CX  23110.07229432  .00023840  00000-0  11523-2 0  9996","2 55102  97.4811 170.7955 0015333 201.8649 158.1933 15.18515959 16280","2023-001CX","55102","6888.462","94.829","520.889","499.765","0"
"GENERATED VIA SPACETRACK.ORG API","18 SPCS","55102","SPACEBEE-157","PAYLOAD","U","23001CX","2023-04-20 09:38:33","79200","15.18531481","0.0015392","97.4809","171.1213","200.8066","159.2544","0","999","1633","0.0010958","0.00022674","0","3890827","0 SPACEBEE-157","1 55102U 23001CX  23110.40177175  .00022674  00000-0  10958-2 0  9994","2 55102  97.4809 171.1213 0015392 200.8066 159.2544 15.18531481 16330","2023-001CX","55102","6888.415","94.828","520.883","499.677","0"
"GENERATED VIA SPACETRACK.ORG API","18 SPCS","55102","SPACEBEE-157","PAYLOAD","U","23001CX","2023-04-20 14:23:13","51968","15.18541754","0.0015424","97.4808","171.3169","200.157","159.9057","0","999","1636","0.0011053","0.00022879","0","3891109","0 SPACEBEE-157","1 55102U 23001CX  23110.59945662  .00022879  00000-0  11053-2 0  9992","2 55102  97.4808 171.3169 0015424 200.1570 159.9057 15.18541754 16363","2023-001CX","55102","6888.384","94.828","520.874","499.624","0"
"GENERATED VIA SPACETRACK.ORG API","18 SPCS","55102","SPACEBEE-157","PAYLOAD","U","23001CX","2023-04-21 03:02:19","90176","15.18564847","0.0015653","97.4813","171.8386","198.9765","161.0888","0","999","1644","0.0010754","0.00022274","0","3891529","0 SPACEBEE-157","1 55102U 23001CX  23111.12660984  .00022274  00000-0  10754-2 0  9999","2 55102  97.4813 171.8386 0015653 198.9765 161.0888 15.18564847 16442","2023-001CX","55102","6888.314","94.826","520.961","499.397","0"
"GENERATED VIA SPACETRACK.ORG API","18 SPCS","55102","SPACEBEE-157","PAYLOAD","U","23001CX","2023-04-22 02:45:36","103680","15.18612413","0.0015556","97.4803","172.8172","194.9812","165.0963","0","999","1659","0.00119","0.00024695","0","3892071","0 SPACEBEE-157","1 55102U 23001CX  23112.11500120  .00024695  00000-0  11900-2 0  9997","2 55102  97.4803 172.8172 0015556 194.9812 165.0963 15.18612413 16593","2023-001CX","55102","6888.170","94.823","520.751","499.320","0"
"GENERATED VIA SPACETRACK.ORG API","18 SPCS","55102","SPACEBEE-157","PAYLOAD","U","23001CX","2023-04-22 15:24:40","43232","15.18638487","0.001563","97.4802","173.3387","192.9945","167.0889","0","999","1667","0.0011225","0.00023305","0","3892182","0 SPACEBEE-157","1 55102U 23001CX  23112.64213013  .00023305  00000-0  11225-2 0  9994","2 55102  97.4802 173.3387 0015630 192.9945 167.0889 15.18638487 16671","2023-001CX","55102","6888.091","94.822","520.723","499.190","0"
"GENERATED VIA SPACETRACK.ORG API","18 SPCS","55102","SPACEBEE-157","PAYLOAD","U","23001CX","2023-04-22 21:44:11","776704","15.18647166","0.0015606","97.4801","173.5997","191.8913","168.1955","0","999","1671","0.0010139","0.00021042","0","3892285","0 SPACEBEE-157","1 55102U 23001CX  23112.90569186  .00021042  00000-0  10139-2 0  9997","2 55102  97.4801 173.5997 0015606 191.8913 168.1955 15.18647166 16710","2023-001CX","55102","6888.065","94.821","520.680","499.181","0"
